{"type": "FeatureCollection", "features": [ {"type": "Feature", "properties": {"norad_id": 67081, "name": "STARLINK-35864", "group": "last-30-days", "lat": 46.25359848574375, "lon": 11.571419784987292, "alt_km": 327.52156946894775, "timestamp": "2025-12-25T09:48:51.008528+00:00", "meta": {"OBJECT_NAME": "STARLINK-35864", "OBJECT_ID": "2025-298G", "EPOCH": "2025-12-25T04:00:01.998720", "MEAN_MOTION": 15.81049004, "ECCENTRICITY": 0.0003598, "INCLINATION": 69.9966, "RA_OF_ASC_NODE": 214.6342, "ARG_OF_PERICENTER": 273.2383, "MEAN_ANOMALY": 278.5609, "EPHEMERIS_TYPE": 0, "CLASSIFICATION_TYPE": "U", "NORAD_CAT_ID": 67081, "ELEMENT_SET_NO": 999, "REV_AT_EPOCH": 297, "BSTAR": -0.01027, "MEAN_MOTION_DOT": -0.01734456, "MEAN_MOTION_DDOT": 0}, "tle": {"line1": "1 67081U 25298G   25359.16668980 -.01734456  00000+0 -10270-1 0  9998", "line2": "2 67081  69.9966 214.6342 0003598 273.2383 278.5609 15.81049004  2971"}}, "geometry": {"type": "Point", "coordinates": [11.571419784987292, 46.25359848574375]}}, {"type": "Feature", "properties": {"norad_id": 67082, "name": "STARLINK-36035", "group": "last-30-days", "lat": 44.451614876815285, "lon": 13.000021514067576, "alt_km": 327.82197677917975, "timestamp": "2025-12-25T09:48:51.008538+00:00", "meta": {"OBJECT_NAME": "STARLINK-36035", "OBJECT_ID": "2025-298H", "EPOCH": "2025-12-25T04:00:01.998720", "MEAN_MOTION": 15.8104206, "ECCENTRICITY": 0.0003593, "INCLINATION": 69.9967, "RA_OF_ASC_NODE": 214.6319, "ARG_OF_PERICENTER": 275.8293, "MEAN_ANOMALY": 278.0355, "EPHEMERIS_TYPE": 0, "CLASSIFICATION_TYPE": "U", "NORAD_CAT_ID": 67082, "ELEMENT_SET_NO": 999, "REV_AT_EPOCH": 297, "BSTAR": -0.010266, "MEAN_MOTION_DOT": -0.01733425, "MEAN_MOTION_DDOT": 0}, "tle": {"line1": "1 67082U 25298H   25359.16668980 -.01733425  00000+0 -10266-1 0  9999", "line2": "2 67082  69.9967 214.6319 0003593 275.8293 278.0355 15.81042060  2978"}}, "geometry": {"type": "Point", "coordinates": [13.000021514067576, 44.451614876815285]}}, {"type": "Feature", "properties": {"norad_id": 67083, "name": "STARLINK-36170", "group": "last-30-days", "lat": 42.601446562657124, "lon": 14.363687343538746, "alt_km": 327.9489044755592, "timestamp": "2025-12-25T09:48:51.008558+00:00", "meta": {"OBJECT_NAME": "STARLINK-36170", "OBJECT_ID": "2025-298J", "EPOCH": "2025-12-25T04:00:01.998720", "MEAN_MOTION": 15.81033302, "ECCENTRICITY": 0.000363, "INCLINATION": 69.9962, "RA_OF_ASC_NODE": 214.629, "ARG_OF_PERICENTER": 270.8294, "MEAN_ANOMALY": 285.1422, "EPHEMERIS_TYPE": 0, "CLASSIFICATION_TYPE": "U", "NORAD_CAT_ID": 67083, "ELEMENT_SET_NO": 999, "REV_AT_EPOCH": 297, "BSTAR": -0.010256, "MEAN_MOTION_DOT": -0.01731297, "MEAN_MOTION_DDOT": 0}, "tle": {"line1": "1 67083U 25298J   25359.16668980 -.01731297  00000+0 -10256-1 0  9994", "line2": "2 67083  69.9962 214.6290 0003630 270.8294 285.1422 15.81033302  2973"}}, "geometry": {"type": "Point", "coordinates": [14.363687343538746, 42.601446562657124]}}, {"type": "Feature", "properties": {"norad_id": 67084, "name": "STARLINK-36166", "group": "last-30-days", "lat": 40.822133767796416, "lon": 15.591710611495412, "alt_km": 328.3016587602242, "timestamp": "2025-12-25T09:48:51.008573+00:00", "meta": {"OBJECT_NAME": "STARLINK-36166", "OBJECT_ID": "2025-298K", "EPOCH": "2025-12-25T04:00:01.998720", "MEAN_MOTION": 15.81032049, "ECCENTRICITY": 0.0003605, "INCLINATION": 69.9964, "RA_OF_ASC_NODE": 214.6265, "ARG_OF_PERICENTER": 275.5713, "MEAN_ANOMALY": 282.3996, "EPHEMERIS_TYPE": 0, "CLASSIFICATION_TYPE": "U", "NORAD_CAT_ID": 67084, "ELEMENT_SET_NO": 999, "REV_AT_EPOCH": 291, "BSTAR": -0.010271, "MEAN_MOTION_DOT": -0.01733412, "MEAN_MOTION_DDOT": 0}, "tle": {"line1": "1 67084U 25298K   25359.16668980 -.01733412  00000+0 -10271-1 0  9993", "line2": "2 67084  69.9964 214.6265 0003605 275.5713 282.3996 15.81032049  2914"}}, "geometry": {"type": "Point", "coordinates": [15.591710611495412, 40.822133767796416]}}, {"type": "Feature", "properties": {"norad_id": 67085, "name": "STARLINK-35794", "group": "last-30-days", "lat": 39.058840745205956, "lon": 16.737329035197057, "alt_km": 328.39239714860014, "timestamp": "2025-12-25T09:48:51.008583+00:00", "meta": {"OBJECT_NAME": "STARLINK-35794", "OBJECT_ID": "2025-298L", "EPOCH": "2025-12-25T04:00:01.998720", "MEAN_MOTION": 15.81031298, "ECCENTRICITY": 0.0003637, "INCLINATION": 69.9965, "RA_OF_ASC_NODE": 214.6242, "ARG_OF_PERICENTER": 270.7222, "MEAN_ANOMALY": 289.2211, "EPHEMERIS_TYPE": 0, "CLASSIFICATION_TYPE": "U", "NORAD_CAT_ID": 67085, "ELEMENT_SET_NO": 999, "REV_AT_EPOCH": 297, "BSTAR": -0.010273, "MEAN_MOTION_DOT": -0.01733643, "MEAN_MOTION_DDOT": 0}, "tle": {"line1": "1 67085U 25298L   25359.16668980 -.01733643  00000+0 -10273-1 0  9992", "line2": "2 67085  69.9965 214.6242 0003637 270.7222 289.2211 15.81031298  2975"}}, "geometry": {"type": "Point", "coordinates": [16.737329035197057, 39.058840745205956]}}, {"type": "Feature", "properties": {"norad_id": 67086, "name": "STARLINK-35841", "group": "last-30-days", "lat": 37.092189194027235, "lon": 17.941318442267928, "alt_km": 328.7725106892749, "timestamp": "2025-12-25T09:48:51.008593+00:00", "meta": {"OBJECT_NAME": "STARLINK-35841", "OBJECT_ID": "2025-298M", "EPOCH": "2025-12-25T04:00:01.998720", "MEAN_MOTION": 15.810224, "ECCENTRICITY": 0.000366, "INCLINATION": 69.9964, "RA_OF_ASC_NODE": 214.6215, "ARG_OF_PERICENTER": 273.6865, "MEAN_ANOMALY": 288.4457, "EPHEMERIS_TYPE": 0, "CLASSIFICATION_TYPE": "U", "NORAD_CAT_ID": 67086, "ELEMENT_SET_NO": 999, "REV_AT_EPOCH": 297, "BSTAR": -0.01029, "MEAN_MOTION_DOT": -0.01735564, "MEAN_MOTION_DDOT": 0}, "tle": {"line1": "1 67086U 25298M   25359.16668980 -.01735564  00000+0 -10290-1 0  9996", "line2": "2 67086  69.9964 214.6215 0003660 273.6865 288.4457 15.81022400  2974"}}, "geometry": {"type": "Point", "coordinates": [17.941318442267928, 37.092189194027235]}}, {"type": "Feature", "properties": {"norad_id": 67087, "name": "STARLINK-35842", "group": "last-30-days", "lat": 39.53283114683918, "lon": 16.4355595292928, "alt_km": 333.7119816341519, "timestamp": "2025-12-25T09:48:51.008607+00:00", "meta": {"OBJECT_NAME": "STARLINK-35842", "OBJECT_ID": "2025-298N", "EPOCH": "2025-12-25T04:00:01.998720", "MEAN_MOTION": 15.79490196, "ECCENTRICITY": 0.0003462, "INCLINATION": 69.9965, "RA_OF_ASC_NODE": 214.6227, "ARG_OF_PERICENTER": 270.432, "MEAN_ANOMALY": 290.4941, "EPHEMERIS_TYPE": 0, "CLASSIFICATION_TYPE": "U", "NORAD_CAT_ID": 67087, "ELEMENT_SET_NO": 999, "REV_AT_EPOCH": 297, "BSTAR": -0.015597, "MEAN_MOTION_DOT": -0.02443324, "MEAN_MOTION_DDOT": 0}, "tle": {"line1": "1 67087U 25298N   25359.16668980 -.02443324  00000+0 -15597-1 0  9993", "line2": "2 67087  69.9965 214.6227 0003462 270.4320 290.4941 15.79490196  2979"}}, "geometry": {"type": "Point", "coordinates": [16.4355595292928, 39.53283114683918]}}, {"type": "Feature", "properties": {"norad_id": 67088, "name": "STARLINK-35882", "group": "last-30-days", "lat": 33.513095071212405, "lon": 19.965053495540186, "alt_km": 329.2345021678984, "timestamp": "2025-12-25T09:48:51.008620+00:00", "meta": {"OBJECT_NAME": "STARLINK-35882", "OBJECT_ID": "2025-298P", "EPOCH": "2025-12-25T04:00:01.998720", "MEAN_MOTION": 15.81016226, "ECCENTRICITY": 0.0003623, "INCLINATION": 69.9966, "RA_OF_ASC_NODE": 214.6168, "ARG_OF_PERICENTER": 274.0533, "MEAN_ANOMALY": 292.0229, "EPHEMERIS_TYPE": 0, "CLASSIFICATION_TYPE": "U", "NORAD_CAT_ID": 67088, "ELEMENT_SET_NO": 999, "REV_AT_EPOCH": 297, "BSTAR": -0.01028, "MEAN_MOTION_DOT": -0.01733597, "MEAN_MOTION_DDOT": 0}, "tle": {"line1": "1 67088U 25298P   25359.16668980 -.01733597  00000+0 -10280-1 0  9991", "line2": "2 67088  69.9966 214.6168 0003623 274.0533 292.0229 15.81016226  2978"}}, "geometry": {"type": "Point", "coordinates": [19.965053495540186, 33.513095071212405]}}, {"type": "Feature", "properties": {"norad_id": 67089, "name": "STARLINK-35763", "group": "last-30-days", "lat": 31.54328182971555, "lon": 21.000226396472357, "alt_km": 329.49927651401504, "timestamp": "2025-12-25T09:48:51.008630+00:00", "meta": {"OBJECT_NAME": "STARLINK-35763", "OBJECT_ID": "2025-298Q", "EPOCH": "2025-12-25T04:00:01.998720", "MEAN_MOTION": 15.81009211, "ECCENTRICITY": 0.0003689, "INCLINATION": 69.9966, "RA_OF_ASC_NODE": 214.6138, "ARG_OF_PERICENTER": 273.0477, "MEAN_ANOMALY": 295.1898, "EPHEMERIS_TYPE": 0, "CLASSIFICATION_TYPE": "U", "NORAD_CAT_ID": 67089, "ELEMENT_SET_NO": 999, "REV_AT_EPOCH": 297, "BSTAR": -0.010294, "MEAN_MOTION_DOT": -0.01735324, "MEAN_MOTION_DDOT": 0}, "tle": {"line1": "1 67089U 25298Q   25359.16668980 -.01735324  00000+0 -10294-1 0  9997", "line2": "2 67089  69.9966 214.6138 0003689 273.0477 295.1898 15.81009211  2976"}}, "geometry": {"type": "Point", "coordinates": [21.000226396472357, 31.54328182971555]}}, {"type": "Feature", "properties": {"norad_id": 67090, "name": "STARLINK-36060", "group": "last-30-days", "lat": 29.833738644192234, "lon": 21.860220976743527, "alt_km": 329.6590250373083, "timestamp": "2025-12-25T09:48:51.008639+00:00", "meta": {"OBJECT_NAME": "STARLINK-36060", "OBJECT_ID": "2025-298R", "EPOCH": "2025-12-25T04:00:01.998720", "MEAN_MOTION": 15.81009797, "ECCENTRICITY": 0.0003663, "INCLINATION": 69.996, "RA_OF_ASC_NODE": 214.6115, "ARG_OF_PERICENTER": 271.9574, "MEAN_ANOMALY": 298.1412, "EPHEMERIS_TYPE": 0, "CLASSIFICATION_TYPE": "U", "NORAD_CAT_ID": 67090, "ELEMENT_SET_NO": 999, "REV_AT_EPOCH": 291, "BSTAR": -0.010282, "MEAN_MOTION_DOT": -0.01733558, "MEAN_MOTION_DDOT": 0}, "tle": {"line1": "1 67090U 25298R   25359.16668980 -.01733558  00000+0 -10282-1 0  9993", "line2": "2 67090  69.9960 214.6115 0003663 271.9574 298.1412 15.81009797  2912"}}, "geometry": {"type": "Point", "coordinates": [21.860220976743527, 29.833738644192234]}}]}